{
  "norad_id": 42814,
  "name": "HELLAS-SAT 3",
  "history": [
    {
      "epoch": "2026-03-28T20:06:17.762112Z",
      "apogee_km": 35808.64813990499,
      "perigee_km": 35763.60995748241,
      "latitude_deg": 0.05644587276757972,
      "longitude_deg": 39.0201255682538,
      "height_km": 35806.80621387937,
      "semi_major_axis_km": 42164.2660486937,
      "eccentricity": 0.00053408,
      "inclination_deg": 0.074,
      "raan_deg": 45.5706,
      "arg_perigee_deg": 321.7998,
      "mean_anomaly_deg": 159.4312,
      "mean_motion_rev_day": 1.00273447
    },
    {
      "epoch": "2026-03-29T02:57:00.300960Z",
      "apogee_km": 35808.58725029752,
      "perigee_km": 35763.57273223764,
      "latitude_deg": -0.020512175481831516,
      "longitude_deg": 38.939767458358986,
      "height_km": 35788.68694551626,
      "semi_major_axis_km": 42164.21699126758,
      "eccentricity": 0.0005338,
      "inclination_deg": 0.0747,
      "raan_deg": 46.1821,
      "arg_perigee_deg": 321.5607,
      "mean_anomaly_deg": 262.0193,
      "mean_motion_rev_day": 1.00273622
    },
    {
      "epoch": "2026-03-30T02:54:28.822752Z",
      "apogee_km": 35808.478003657,
      "perigee_km": 35763.33717751832,
      "latitude_deg": -0.018237981704782174,
      "longitude_deg": 38.946455305569856,
      "height_km": 35788.858905938985,
      "semi_major_axis_km": 42164.04459058766,
      "eccentricity": 0.0005353,
      "inclination_deg": 0.0768,
      "raan_deg": 47.5241,
      "arg_perigee_deg": 321.4315,
      "mean_anomaly_deg": 261.1673,
      "mean_motion_rev_day": 1.00274237
    },
    {
      "epoch": "2026-03-30T04:37:11.472096Z",
      "apogee_km": 35808.46678466337,
      "perigee_km": 35763.32597052932,
      "latitude_deg": -0.040042076029981936,
      "longitude_deg": 38.948831643091495,
      "height_km": 35778.80378089727,
      "semi_major_axis_km": 42164.033377596345,
      "eccentricity": 0.0005353,
      "inclination_deg": 0.0769,
      "raan_deg": 47.575,
      "arg_perigee_deg": 321.4739,
      "mean_anomaly_deg": 286.8226,
      "mean_motion_rev_day": 1.00274277
    },
    {
      "epoch": "2026-03-30T04:37:11.472960Z",
      "apogee_km": 35808.46847122471,
      "perigee_km": 35763.32428396798,
      "latitude_deg": -0.040042072805262986,
      "longitude_deg": 38.94882362429533,
      "height_km": 35778.80328942839,
      "semi_major_axis_km": 42164.033377596345,
      "eccentricity": 0.00053534,
      "inclination_deg": 0.0769,
      "raan_deg": 47.575,
      "arg_perigee_deg": 321.4739,
      "mean_anomaly_deg": 286.8226,
      "mean_motion_rev_day": 1.00274277
    },
    {
      "epoch": "2026-03-30T18:18:45.218304Z",
      "apogee_km": 35808.57958494736,
      "perigee_km": 35762.756804737706,
      "latitude_deg": 0.03661328402026367,
      "longitude_deg": 39.059921484514994,
      "height_km": 35800.66557427413,
      "semi_major_axis_km": 42163.805194842535,
      "eccentricity": 0.00054339,
      "inclination_deg": 0.0636,
      "raan_deg": 18.1406,
      "arg_perigee_deg": 351.4546,
      "mean_anomaly_deg": 132.2363,
      "mean_motion_rev_day": 1.00275091
    },
    {
      "epoch": "2026-03-31T19:49:09.596928Z",
      "apogee_km": 35808.61680224057,
      "perigee_km": 35762.48972509212,
      "latitude_deg": 0.03151879472583649,
      "longitude_deg": 39.050856433294335,
      "height_km": 35805.96304896627,
      "semi_major_axis_km": 42163.69026366634,
      "eccentricity": 0.000547,
      "inclination_deg": 0.0608,
      "raan_deg": 22.4773,
      "arg_perigee_deg": 348.623,
      "mean_anomaly_deg": 154.3933,
      "mean_motion_rev_day": 1.00275501
    },
    {
      "epoch": "2026-04-01T16:31:09.323040Z",
      "apogee_km": 35808.5291448152,
      "perigee_km": 35762.28417013168,
      "latitude_deg": 0.02702894112215769,
      "longitude_deg": 39.094584694833486,
      "height_km": 35790.75594283495,
      "semi_major_axis_km": 42163.54365747344,
      "eccentricity": 0.0005484,
      "inclination_deg": 0.0597,
      "raan_deg": 25.9509,
      "arg_perigee_deg": 346.3835,
      "mean_anomaly_deg": 104.5206,
      "mean_motion_rev_day": 1.00276024
    },
    {
      "epoch": "2026-04-02T18:11:22.013952Z",
      "apogee_km": 35809.44766603559,
      "perigee_km": 35765.31217616393,
      "latitude_deg": 0.033720126057514246,
      "longitude_deg": 39.06941878286224,
      "height_km": 35799.47271535343,
      "semi_major_axis_km": 42165.516921099756,
      "eccentricity": 0.00052336,
      "inclination_deg": 0.0605,
      "raan_deg": 29.2365,
      "arg_perigee_deg": 349.1945,
      "mean_anomaly_deg": 124.5207,
      "mean_motion_rev_day": 1.00268985
    },
    {
      "epoch": "2026-04-03T20:45:38.822688Z",
      "apogee_km": 35809.39156373399,
      "perigee_km": 35764.99990143312,
      "latitude_deg": 0.02151337187504566,
      "longitude_deg": 39.02562909067961,
      "height_km": 35807.978706413705,
      "semi_major_axis_km": 42165.332732583556,
      "eccentricity": 0.0005264,
      "inclination_deg": 0.0619,
      "raan_deg": 32.0132,
      "arg_perigee_deg": 348.0132,
      "mean_anomaly_deg": 162.5772,
      "mean_motion_rev_day": 1.00269642
    },
    {
      "epoch": "2026-04-04T04:24:57.587040Z",
      "apogee_km": 35809.37281629917,
      "perigee_km": 35764.93903061643,
      "latitude_deg": -0.03630366657297705,
      "longitude_deg": 38.94450784720507,
      "height_km": 35783.67196981495,
      "semi_major_axis_km": 42165.2929234578,
      "eccentricity": 0.0005269,
      "inclination_deg": 0.0621,
      "raan_deg": 33.039,
      "arg_perigee_deg": 347.0689,
      "mean_anomaly_deg": 277.6361,
      "mean_motion_rev_day": 1.00269784
    },
    {
      "epoch": "2026-04-05T12:55:53.905440Z",
      "apogee_km": 35809.245386302406,
      "perigee_km": 35764.63304906104,
      "latitude_deg": 0.019920441687649698,
      "longitude_deg": 39.03789502068802,
      "height_km": 35770.64729178538,
      "semi_major_axis_km": 42165.07621768172,
      "eccentricity": 0.00052902,
      "inclination_deg": 0.0637,
      "raan_deg": 36.3627,
      "arg_perigee_deg": 345.2631,
      "mean_anomaly_deg": 45.1806,
      "mean_motion_rev_day": 1.00270557
    }
  ]
}